{"type": "FeatureCollection", "features": [{"type": "Feature", "properties": {"norad_id": 22490, "name": "SCD 1", "group": "resource", "lat": -2.574696561790469, "lon": 91.5989340076647, "alt_km": 765.1636174550313, "timestamp": "2025-12-14T18:52:55.154528+00:00", "meta": {"OBJECT_NAME": "SCD 1", "OBJECT_ID": "1993-009B", "EPOCH": "2025-12-14T00:12:59.162976", "MEAN_MOTION": 14.46000185, "ECCENTRICITY": 0.00418449, "INCLINATION": 24.9696, "RA_OF_ASC_NODE": 270.8524, "ARG_OF_PERICENTER": 338.5029, "MEAN_ANOMALY": 110.9296, "EPHEMERIS_TYPE": 0, "CLASSIFICATION_TYPE": "U", "NORAD_CAT_ID": 22490, "ELEMENT_SET_NO": 999, "REV_AT_EPOCH": 73428, "BSTAR": 0.0001275618, "MEAN_MOTION_DOT": 6.52e-06, "MEAN_MOTION_DDOT": 0}, "tle": {"line1": "1 22490U 93009B   25348.00901809  .00000652  00000+0  12756-3 0  9993", "line2": "2 22490  24.9696 270.8524 0041844 338.5029 110.9296 14.46000185734285"}}, "geometry": {"type": "Point", "coordinates": [91.5989340076647, -2.574696561790469]}}, {"type": "Feature", "properties": {"norad_id": 25397, "name": "TECHSAT 1B (GO-32)", "group": "resource", "lat": -39.29304857852471, "lon": 144.6011635399811, "alt_km": 818.428413388945, "timestamp": "2025-12-14T18:52:55.154553+00:00", "meta": {"OBJECT_NAME": "TECHSAT 1B (GO-32)", "OBJECT_ID": "1998-043D", "EPOCH": "2025-12-13T21:37:21.693792", "MEAN_MOTION": 14.24377408, "ECCENTRICITY": 0.00020263, "INCLINATION": 98.9921, "RA_OF_ASC_NODE": 331.1398, "ARG_OF_PERICENTER": 55.4203, "MEAN_ANOMALY": 304.7166, "EPHEMERIS_TYPE": 0, "CLASSIFICATION_TYPE": "U", "NORAD_CAT_ID": 25397, "ELEMENT_SET_NO": 999, "REV_AT_EPOCH": 42495, "BSTAR": 8.3391826e-05, "MEAN_MOTION_DOT": 1.46e-06, "MEAN_MOTION_DDOT": 0}, "tle": {"line1": "1 25397U 98043D   25347.90094553  .00000146  00000+0  83392-4 0  9995", "line2": "2 25397  98.9921 331.1398 0002026  55.4203 304.7166 14.24377408424954"}}, "geometry": {"type": "Point", "coordinates": [144.6011635399811, -39.29304857852471]}}, {"type": "Feature", "properties": {"norad_id": 25504, "name": "SCD 2", "group": "resource", "lat": -13.620161895695357, "lon": -19.383869538935436, "alt_km": 746.4302123182651, "timestamp": "2025-12-14T18:52:55.154568+00:00", "meta": {"OBJECT_NAME": "SCD 2", "OBJECT_ID": "1998-060A", "EPOCH": "2025-12-13T17:38:54.244320", "MEAN_MOTION": 14.45424097, "ECCENTRICITY": 0.00166891, "INCLINATION": 24.9935, "RA_OF_ASC_NODE": 135.7566, "ARG_OF_PERICENTER": 324.2474, "MEAN_ANOMALY": 167.6717, "EPHEMERIS_TYPE": 0, "CLASSIFICATION_TYPE": "U", "NORAD_CAT_ID": 25504, "ELEMENT_SET_NO": 999, "REV_AT_EPOCH": 43346, "BSTAR": 0.00010752318, "MEAN_MOTION_DOT": 5.67e-06, "MEAN_MOTION_DDOT": 0}, "tle": {"line1": "1 25504U 98060A   25347.73535005  .00000567  00000+0  10752-3 0  9993", "line2": "2 25504  24.9935 135.7566 0016689 324.2474 167.6717 14.45424097433464"}}, "geometry": {"type": "Point", "coordinates": [-19.383869538935436, -13.620161895695357]}}, {"type": "Feature", "properties": {"norad_id": 25757, "name": "DLR-TUBSAT", "group": "resource", "lat": -73.5176260359675, "lon": 4.35316538958324, "alt_km": 726.5437177845097, "timestamp": "2025-12-14T18:52:55.154580+00:00", "meta": {"OBJECT_NAME": "DLR-TUBSAT", "OBJECT_ID": "1999-029B", "EPOCH": "2025-12-13T21:44:12.877440", "MEAN_MOTION": 14.52358247, "ECCENTRICITY": 0.0013975, "INCLINATION": 98.6564, "RA_OF_ASC_NODE": 332.4554, "ARG_OF_PERICENTER": 189.1758, "MEAN_ANOMALY": 170.9184, "EPHEMERIS_TYPE": 0, "CLASSIFICATION_TYPE": "U", "NORAD_CAT_ID": 25757, "ELEMENT_SET_NO": 999, "REV_AT_EPOCH": 40635, "BSTAR": 6.4595841e-05, "MEAN_MOTION_DOT": 2.15e-06, "MEAN_MOTION_DDOT": 0}, "tle": {"line1": "1 25757U 99029B   25347.90570460  .00000215  00000+0  64596-4 0  9998", "line2": "2 25757  98.6564 332.4554 0013975 189.1758 170.9184 14.52358247406355"}}, "geometry": {"type": "Point", "coordinates": [4.35316538958324, -73.5176260359675]}}, {"type": "Feature", "properties": {"norad_id": 25994, "name": "TERRA", "group": "resource", "lat": 49.16338605507, "lon": 31.061609294149658, "alt_km": 683.8442508282242, "timestamp": "2025-12-14T18:52:55.154609+00:00", "meta": {"OBJECT_NAME": "TERRA", "OBJECT_ID": "1999-068A", "EPOCH": "2025-12-13T23:10:15.237696", "MEAN_MOTION": 14.60903581, "ECCENTRICITY": 0.00036028, "INCLINATION": 97.9749, "RA_OF_ASC_NODE": 39.605, "ARG_OF_PERICENTER": 92.0675, "MEAN_ANOMALY": 321.0246, "EPHEMERIS_TYPE": 0, "CLASSIFICATION_TYPE": "U", "NORAD_CAT_ID": 25994, "ELEMENT_SET_NO": 999, "REV_AT_EPOCH": 38256, "BSTAR": 0.00014965652, "MEAN_MOTION_DOT": 6.88e-06, "MEAN_MOTION_DDOT": 0}, "tle": {"line1": "1 25994U 99068A   25347.96545414  .00000688  00000+0  14966-3 0  9990", "line2": "2 25994  97.9749  39.6050 0003602  92.0675 321.0246 14.60903581382568"}}, "geometry": {"type": "Point", "coordinates": [31.061609294149658, 49.16338605507]}}, {"type": "Feature", "properties": {"norad_id": 27004, "name": "MAROC-TUBSAT", "group": "resource", "lat": 80.04356709852787, "lon": 56.89882326178726, "alt_km": 1004.691723944351, "timestamp": "2025-12-14T18:52:55.154624+00:00", "meta": {"OBJECT_NAME": "MAROC-TUBSAT", "OBJECT_ID": "2001-056D", "EPOCH": "2025-12-13T23:42:42.996960", "MEAN_MOTION": 13.70252944, "ECCENTRICITY": 0.00191057, "INCLINATION": 99.7912, "RA_OF_ASC_NODE": 156.4548, "ARG_OF_PERICENTER": 256.8371, "MEAN_ANOMALY": 216.8812, "EPHEMERIS_TYPE": 0, "CLASSIFICATION_TYPE": "U", "NORAD_CAT_ID": 27004, "ELEMENT_SET_NO": 999, "REV_AT_EPOCH": 20082, "BSTAR": 3.7970398e-05, "MEAN_MOTION_DOT": -1.3e-07, "MEAN_MOTION_DDOT": 0}, "tle": {"line1": "1 27004U 01056D   25347.98799765 -.00000013  00000+0  37970-4 0  9990", "line2": "2 27004  99.7912 156.4548 0019105 256.8371 216.8812 13.70252944200820"}}, "geometry": {"type": "Point", "coordinates": [56.89882326178726, 80.04356709852787]}}, {"type": "Feature", "properties": {"norad_id": 27424, "name": "AQUA", "group": "resource", "lat": -66.80034424002056, "lon": -30.124228608292974, "alt_km": 695.3667480962586, "timestamp": "2025-12-14T18:52:55.154637+00:00", "meta": {"OBJECT_NAME": "AQUA", "OBJECT_ID": "2002-022A", "EPOCH": "2025-12-13T23:39:47.049408", "MEAN_MOTION": 14.61813843, "ECCENTRICITY": 0.00011603, "INCLINATION": 98.4036, "RA_OF_ASC_NODE": 308.8853, "ARG_OF_PERICENTER": 114.9016, "MEAN_ANOMALY": 285.1621, "EPHEMERIS_TYPE": 0, "CLASSIFICATION_TYPE": "U", "NORAD_CAT_ID": 27424, "ELEMENT_SET_NO": 999, "REV_AT_EPOCH": 25621, "BSTAR": 0.00032311374, "MEAN_MOTION_DOT": 1.564e-05, "MEAN_MOTION_DDOT": 0}, "tle": {"line1": "1 27424U 02022A   25347.98596122  .00001564  00000+0  32311-3 0  9996", "line2": "2 27424  98.4036 308.8853 0001160 114.9016 285.1621 14.61813843256216"}}, "geometry": {"type": "Point", "coordinates": [-30.124228608292974, -66.80034424002056]}}, {"type": "Feature", "properties": {"norad_id": 28051, "name": "IRS-P6 (RESOURCESAT-1)", "group": "resource", "lat": -32.626528061119565, "lon": 34.40731845216362, "alt_km": 818.283151968456, "timestamp": "2025-12-14T18:52:55.154648+00:00", "meta": {"OBJECT_NAME": "IRS-P6 (RESOURCESAT-1)", "OBJECT_ID": "2003-046A", "EPOCH": "2025-12-14T00:55:15.230208", "MEAN_MOTION": 14.3607554, "ECCENTRICITY": 0.0064216, "INCLINATION": 98.2182, "RA_OF_ASC_NODE": 28.3851, "ARG_OF_PERICENTER": 176.7648, "MEAN_ANOMALY": 243.2126, "EPHEMERIS_TYPE": 0, "CLASSIFICATION_TYPE": "U", "NORAD_CAT_ID": 28051, "ELEMENT_SET_NO": 999, "REV_AT_EPOCH": 15395, "BSTAR": 9.4101209e-05, "MEAN_MOTION_DOT": 2.39e-06, "MEAN_MOTION_DDOT": 0}, "tle": {"line1": "1 28051U 03046A   25348.03837072  .00000239  00000+0  94101-4 0  9993", "line2": "2 28051  98.2182  28.3851 0064216 176.7648 243.2126 14.36075540153951"}}, "geometry": {"type": "Point", "coordinates": [34.40731845216362, -32.626528061119565]}}, {"type": "Feature", "properties": {"norad_id": 28220, "name": "SHIYAN-1 (SY-1)", "group": "resource", "lat": 21.640249746852234, "lon": -126.39870317100747, "alt_km": 484.6335015574932, "timestamp": "2025-12-14T18:52:55.154659+00:00", "meta": {"OBJECT_NAME": "SHIYAN-1 (SY-1)", "OBJECT_ID": "2004-012A", "EPOCH": "2025-12-13T17:02:55.745088", "MEAN_MOTION": 15.28182686, "ECCENTRICITY": 0.00055601, "INCLINATION": 97.8939, "RA_OF_ASC_NODE": 49.3057, "ARG_OF_PERICENTER": 322.0601, "MEAN_ANOMALY": 38.0245, "EPHEMERIS_TYPE": 0, "CLASSIFICATION_TYPE": "U", "NORAD_CAT_ID": 28220, "ELEMENT_SET_NO": 999, "REV_AT_EPOCH": 18271, "BSTAR": 0.00054366645, "MEAN_MOTION_DOT": 0.00014873, "MEAN_MOTION_DDOT": 0}, "tle": {"line1": "1 28220U 04012A   25347.71036742  .00014873  00000+0  54367-3 0  9992", "line2": "2 28220  97.8939  49.3057 0005560 322.0601  38.0245 15.28182686182717"}}, "geometry": {"type": "Point", "coordinates": [-126.39870317100747, 21.640249746852234]}}, {"type": "Feature", "properties": {"norad_id": 28376, "name": "AURA", "group": "resource", "lat": 55.70294850376451, "lon": -73.36388937880281, "alt_km": 684.0479508879089, "timestamp": "2025-12-14T18:52:55.154671+00:00", "meta": {"OBJECT_NAME": "AURA", "OBJECT_ID": "2004-026A", "EPOCH": "2025-12-13T22:53:56.291136", "MEAN_MOTION": 14.60950384, "ECCENTRICITY": 0.00012567, "INCLINATION": 98.3185, "RA_OF_ASC_NODE": 298.1863, "ARG_OF_PERICENTER": 93.9916, "MEAN_ANOMALY": 266.1428, "EPHEMERIS_TYPE": 0, "CLASSIFICATION_TYPE": "U", "NORAD_CAT_ID": 28376, "ELEMENT_SET_NO": 999, "REV_AT_EPOCH": 13916, "BSTAR": 0.00032771556, "MEAN_MOTION_DOT": 1.558e-05, "MEAN_MOTION_DDOT": 0}, "tle": {"line1": "1 28376U 04026A   25347.95412374  .00001558  00000+0  32772-3 0  9996", "line2": "2 28376  98.3185 298.1863 0001256  93.9916 266.1428 14.60950384139169"}}, "geometry": {"type": "Point", "coordinates": [-73.36388937880281, 55.70294850376451]}}]}